NAVSTAR 43 (USA 132)    
1 24876U 97035A   25334.26817264  .00000053  00000+0  00000+0 0  9990
2 24876  55.8891 106.3568 0096627  57.0227 303.8862  2.00563468207965
NAVSTAR 47 (USA 150)    
1 26360U 00025A   25334.72425465 -.00000068  00000+0  00000+0 0  9999
2 26360  55.0381  27.3241 0038757 240.7993 181.1777  2.00568582187299
NAVSTAR 48 (USA 151)    
1 26407U 00040A   25334.87045207  .00000043  00000+0  00000+0 0  9998
2 26407  54.8938 223.0411 0126668 301.5854  65.5277  2.00567690185973
NAVSTAR 51 (USA 166)    
1 27663U 03005A   25334.68787567  .00000042  00000+0  00000+0 0  9997
2 27663  54.9265 222.8577 0146957  51.6309 319.3890  2.00571469167333
NAVSTAR 54 (USA 177)    
1 28190U 04009A   25330.21851316 -.00000024  00000+0  00000+0 0  9998
2 28190  55.0011 283.8850 0108092 167.3745  15.7730  2.00561394158873
NAVSTAR 56 (USA 180)    
1 28474U 04045A   25334.62136441 -.00000052  00000+0  00000+0 0  9998
2 28474  55.2466 332.8936 0170487 308.7243 233.2493  2.00568806154442
NAVSTAR 57 (USA 183)    
1 28874U 05038A   25334.67829928 -.00000041  00000+0  00000+0 0  9997
2 28874  55.0429 281.1867 0132878 293.3584 248.5646  2.00548966147852
INMARSAT 4-F2           
1 28899U 05044A   25334.60524428 -.00000240  00000+0  00000+0 0  9992
2 28899   4.8350  43.6494 0003377 206.1893 181.2859  1.00271038 73531
